[{"OBJECT_NAME":"STARLINK-33689","OBJECT_ID":"2025-057R","EPOCH":"2026-03-08T22:06:22.362624","MEAN_MOTION":15.27571256,"ECCENTRICITY":0.00015134,"INCLINATION":42.9984,"RA_OF_ASC_NODE":34.861,"ARG_OF_PERICENTER":264.9335,"MEAN_ANOMALY":95.1344,"EPHEMERIS_TYPE":0,"CLASSIFICATION_TYPE":"U","NORAD_CAT_ID":63322,"ELEMENT_SET_NO":999,"REV_AT_EPOCH":5566,"BSTAR":0.0018043075,"MEAN_MOTION_DOT":0.00049711,"MEAN_MOTION_DDOT":0},{"OBJECT_NAME":"COSMOS 2251 DEB","OBJECT_ID":"1993-036AMV","EPOCH":"2026-03-09T05:38:06.550656","MEAN_MOTION":15.39543317,"ECCENTRICITY":0.00779257,"INCLINATION":73.9961,"RA_OF_ASC_NODE":355.5603,"ARG_OF_PERICENTER":37.2584,"MEAN_ANOMALY":111.9555,"EPHEMERIS_TYPE":0,"CLASSIFICATION_TYPE":"U","NORAD_CAT_ID":35602,"ELEMENT_SET_NO":999,"REV_AT_EPOCH":91420,"BSTAR":0.00072859847,"MEAN_MOTION_DOT":0.00031956,"MEAN_MOTION_DDOT":0}]
